{
  "type": "FeatureCollection",
  "features": [
    {
      "type": "Feature",
      "properties": {
        "norad_id": 66904,
        "name": "STARLINK-36059",
        "group": "last-30-days",
        "lat": 35.171123714462226,
        "lon": -178.882038159519,
        "alt_km": 342.0856835957138,
        "timestamp": "2025-12-20T20:38:43.174164+00:00",
        "meta_object_name": "STARLINK-36059",
        "meta_object_id": "2025-283AC",
        "meta_epoch": "2025-12-20T14:00:03.000384",
        "meta_mean_motion": 15.74172174,
        "meta_eccentricity": 0.00010301,
        "meta_inclination": 53.1576,
        "meta_ra_of_asc_node": 34.3869,
        "meta_arg_of_pericenter": 79.5375,
        "meta_mean_anomaly": 284.4854,
        "meta_ephemeris_type": 0,
        "meta_classification_type": "U",
        "meta_norad_cat_id": 66904,
        "meta_element_set_no": 999,
        "meta_rev_at_epoch": 369,
        "meta_bstar": 6.1291416e-05,
        "meta_mean_motion_dot": 8.35e-05,
        "meta_mean_motion_ddot": 0,
        "tle_line1": "1 66904U 25283AC  25354.58336806  .00008350  00000+0  61291-4 0  9991",
        "tle_line2": "2 66904  53.1576  34.3869 0001030  79.5375 284.4854 15.74172174  3699"
      },
      "geometry": {
        "type": "Point",
        "coordinates": [
          -178.882038159519,
          35.171123714462226
        ]
      }
    },
    {
      "type": "Feature",
      "properties": {
        "norad_id": 66905,
        "name": "STARLINK-36075",
        "group": "last-30-days",
        "lat": 33.85338581024795,
        "lon": -177.18693854181106,
        "alt_km": 342.3374231751377,
        "timestamp": "2025-12-20T20:38:43.174174+00:00",
        "meta_object_name": "STARLINK-36075",
        "meta_object_id": "2025-283AD",
        "meta_epoch": "2025-12-20T14:00:03.000384",
        "meta_mean_motion": 15.74171962,
        "meta_eccentricity": 0.00011814,
        "meta_inclination": 53.1576,
        "meta_ra_of_asc_node": 34.3833,
        "meta_arg_of_pericenter": 73.1222,
        "meta_mean_anomaly": 292.8188,
        "meta_ephemeris_type": 0,
        "meta_classification_type": "U",
        "meta_norad_cat_id": 66905,
        "meta_element_set_no": 999,
        "meta_rev_at_epoch": 369,
        "meta_bstar": 5.1285458e-05,
        "meta_mean_motion_dot": 6.882e-05,
        "meta_mean_motion_ddot": 0,
        "tle_line1": "1 66905U 25283AD  25354.58336806  .00006882  00000+0  51285-4 0  9992",
        "tle_line2": "2 66905  53.1576  34.3833 0001181  73.1222 292.8188 15.74171962  3696"
      },
      "geometry": {
        "type": "Point",
        "coordinates": [
          -177.18693854181106,
          33.85338581024795
        ]
      }
    },
    {
      "type": "Feature",
      "properties": {
        "norad_id": 66906,
        "name": "1998-067XS",
        "group": "last-30-days",
        "lat": 44.65601536385065,
        "lon": 153.6515760612802,
        "alt_km": 409.7814757099932,
        "timestamp": "2025-12-20T20:38:43.174184+00:00",
        "meta_object_name": "1998-067XS",
        "meta_object_id": "1998-067XS",
        "meta_epoch": "2025-12-20T11:05:35.991168",
        "meta_mean_motion": 15.50962254,
        "meta_eccentricity": 0.00030029,
        "meta_inclination": 51.6311,
        "meta_ra_of_asc_node": 104.1082,
        "meta_arg_of_pericenter": 237.5,
        "meta_mean_anomaly": 122.5699,
        "meta_ephemeris_type": 0,
        "meta_classification_type": "U",
        "meta_norad_cat_id": 66906,
        "meta_element_set_no": 999,
        "meta_rev_at_epoch": 281,
        "meta_bstar": 0.00037246497,
        "meta_mean_motion_dot": 0.00021596,
        "meta_mean_motion_ddot": 0,
        "tle_line1": "1 66906U 98067XS  25354.46222212  .00021596  00000+0  37246-3 0  9994",
        "tle_line2": "2 66906  51.6311 104.1082 0003002 237.5000 122.5699 15.50962254  2818"
      },
      "geometry": {
        "type": "Point",
        "coordinates": [
          153.6515760612802,
          44.65601536385065
        ]
      }
    },
    {
      "type": "Feature",
      "properties": {
        "norad_id": 66907,
        "name": "1998-067XT",
        "group": "last-30-days",
        "lat": 46.12106761388009,
        "lon": -133.45184857704197,
        "alt_km": 405.93106116386116,
        "timestamp": "2025-12-20T20:38:43.174194+00:00",
        "meta_object_name": "1998-067XT",
        "meta_object_id": "1998-067XT",
        "meta_epoch": "2025-12-19T11:42:50.767776",
        "meta_mean_motion": 15.52255247,
        "meta_eccentricity": 0.0003998,
        "meta_inclination": 51.6306,
        "meta_ra_of_asc_node": 108.8528,
        "meta_arg_of_pericenter": 265.7173,
        "meta_mean_anomaly": 94.336,
        "meta_ephemeris_type": 0,
        "meta_classification_type": "U",
        "meta_norad_cat_id": 66907,
        "meta_element_set_no": 999,
        "meta_rev_at_epoch": 266,
        "meta_bstar": 0.00077339,
        "meta_mean_motion_dot": 0.00047666,
        "meta_mean_motion_ddot": 0,
        "tle_line1": "1 66907U 98067XT  25353.48808759  .00047666  00000+0  77339-3 0  9995",
        "tle_line2": "2 66907  51.6306 108.8528 0003998 265.7173  94.3360 15.52255247  2660"
      },
      "geometry": {
        "type": "Point",
        "coordinates": [
          -133.45184857704197,
          46.12106761388009
        ]
      }
    },
    {
      "type": "Feature",
      "properties": {
        "norad_id": 66908,
        "name": "1998-067XU",
        "group": "last-30-days",
        "lat": 43.92505937644547,
        "lon": -127.7167279638167,
        "alt_km": 405.87427001397555,
        "timestamp": "2025-12-20T20:38:43.174204+00:00",
        "meta_object_name": "1998-067XU",
        "meta_object_id": "1998-067XU",
        "meta_epoch": "2025-12-20T13:57:38.963808",
        "meta_mean_motion": 15.52465703,
        "meta_eccentricity": 0.00039229,
        "meta_inclination": 51.6312,
        "meta_ra_of_asc_node": 103.4063,
        "meta_arg_of_pericenter": 272.2862,
        "meta_mean_anomaly": 87.7679,
        "meta_ephemeris_type": 0,
        "meta_classification_type": "U",
        "meta_norad_cat_id": 66908,
        "meta_element_set_no": 999,
        "meta_rev_at_epoch": 283,
        "meta_bstar": 0.00073917994,
        "meta_mean_motion_dot": 0.00045874,
        "meta_mean_motion_ddot": 0,
        "tle_line1": "1 66908U 98067XU  25354.58170097  .00045874  00000+0  73918-3 0  9993",
        "tle_line2": "2 66908  51.6312 103.4063 0003922 272.2862  87.7679 15.52465703  2836"
      },
      "geometry": {
        "type": "Point",
        "coordinates": [
          -127.7167279638167,
          43.92505937644547
        ]
      }
    },
    {
      "type": "Feature",
      "properties": {
        "norad_id": 66909,
        "name": "SILVERSAT",
        "group": "last-30-days",
        "lat": 40.72112937511071,
        "lon": -120.99278594561005,
        "alt_km": 405.7319960829118,
        "timestamp": "2025-12-20T20:38:43.174216+00:00",
        "meta_object_name": "SILVERSAT",
        "meta_object_id": "1998-067XV",
        "meta_epoch": "2025-12-19T13:13:09.424128",
        "meta_mean_motion": 15.5251652,
        "meta_eccentricity": 0.0003839,
        "meta_inclination": 51.6306,
        "meta_ra_of_asc_node": 108.5226,
        "meta_arg_of_pericenter": 268.696,
        "meta_mean_anomaly": 91.359,
        "meta_ephemeris_type": 0,
        "meta_classification_type": "U",
        "meta_norad_cat_id": 66909,
        "meta_element_set_no": 999,
        "meta_rev_at_epoch": 267,
        "meta_bstar": 0.00079912,
        "meta_mean_motion_dot": 0.00049748,
        "meta_mean_motion_ddot": 0,
        "tle_line1": "1 66909U 98067XV  25353.55080352  .00049748  00000+0  79912-3 0  9998",
        "tle_line2": "2 66909  51.6306 108.5226 0003839 268.6960  91.3590 15.52516520  2671"
      },
      "geometry": {
        "type": "Point",
        "coordinates": [
          -120.99278594561005,
          40.72112937511071
        ]
      }
    },
    {
      "type": "Feature",
      "properties": {
        "norad_id": 66910,
        "name": "1998-067XW",
        "group": "last-30-days",
        "lat": 34.541090937349686,
        "lon": -111.06223376129167,
        "alt_km": 405.7783732809012,
        "timestamp": "2025-12-20T20:38:43.174226+00:00",
        "meta_object_name": "1998-067XW",
        "meta_object_id": "1998-067XW",
        "meta_epoch": "2025-12-20T13:53:35.349504",
        "meta_mean_motion": 15.52622364,
        "meta_eccentricity": 0.00042741,
        "meta_inclination": 51.6309,
        "meta_ra_of_asc_node": 103.387,
        "meta_arg_of_pericenter": 249.6033,
        "meta_mean_anomaly": 110.4498,
        "meta_ephemeris_type": 0,
        "meta_classification_type": "U",
        "meta_norad_cat_id": 66910,
        "meta_element_set_no": 999,
        "meta_rev_at_epoch": 283,
        "meta_bstar": 0.00071890575,
        "meta_mean_motion_dot": 0.00044854,
        "meta_mean_motion_ddot": 0,
        "tle_line1": "1 66910U 98067XW  25354.57888136  .00044854  00000+0  71891-3 0  9990",
        "tle_line2": "2 66910  51.6309 103.3870 0004274 249.6033 110.4498 15.52622364  2830"
      },
      "geometry": {
        "type": "Point",
        "coordinates": [
          -111.06223376129167,
          34.541090937349686
        ]
      }
    }
  ]
}